OBJECT_NAME,OBJECT_ID,EPOCH,MEAN_MOTION,ECCENTRICITY,INCLINATION,RA_OF_ASC_NODE,ARG_OF_PERICENTER,MEAN_ANOMALY,EPHEMERIS_TYPE,CLASSIFICATION_TYPE,NORAD_CAT_ID,ELEMENT_SET_NO,REV_AT_EPOCH,BSTAR,MEAN_MOTION_DOT,MEAN_MOTION_DDOT
PERSEUS-M1,2014-033AF,2026-07-05T20:03:00.697536,14.95692820,.00103636,97.9645,131.2745,231.3781,128.6513,0,U,40039,999,65342,.14847583E-3,.1593E-4,0
POLYITAN-1,2014-033AJ,2026-07-06T00:56:56.025312,15.33980674,.00084639,98.0937,215.0924,89.7204,270.5006,0,U,40042,999,65648,.68653663E-3,.22547E-3,0
TIGRISAT,2014-033AK,2026-07-05T08:58:13.938816,14.85229748,.00494745,97.7858,335.9710,16.6336,343.6488,0,U,40043,999,64832,.28994452E-3,.2486E-4,0
AEROCUBE 6A,2014-033AM,2026-07-05T23:47:47.908608,14.98283405,.00373917,97.7237,353.7430,312.5497,47.2570,0,U,40045,999,64943,.51282974E-3,.6128E-4,0
AEROCUBE 6B,2014-033AN,2026-07-05T23:24:46.758816,14.99744445,.00378086,97.7219,353.5584,302.8679,56.8907,0,U,40046,999,64957,.48189083E-3,.5982E-4,0
CANX-4,2014-034C,2026-07-06T04:49:20.323488,14.81300630,.00117964,98.3098,63.2100,314.7070,45.3180,0,U,40055,999,64734,.13830832E-3,.1023E-4,0
CANX-5,2014-034D,2026-07-06T03:09:29.630016,14.81317794,.0011793,98.3100,63.1828,315.1569,44.8689,0,U,40056,999,63814,.13835546E-3,.1023E-4,0
UKUBE-1,2014-037F,2026-07-05T22:36:23.413824,15.13856330,.00033413,98.4245,192.1880,104.1515,256.0085,0,U,40074,999,65139,.50349513E-3,.9032E-4,0
BRITE-PL2 (HEWELIUSZ),2014-049B,2026-07-06T06:03:28.605024,14.94665181,.00148963,97.9109,299.4014,50.9040,309.3502,0,U,40119,999,64429,.22612444E-3,.2397E-4,0
AEROCUBE 5C,2015-058B,2026-07-05T11:25:10.199136,14.91536447,.0131703,64.7654,205.6916,56.1518,305.2047,0,U,40965,999,36838,.31327E-3,.3542E-4,0
AEROCUBE 7,2015-058C,2026-07-06T06:55:56.265888,14.95857262,.0121426,64.7608,184.9789,54.1810,307.0514,0,U,40966,999,36881,.36480779E-3,.4565E-4,0
FOX-1A (AO-85),2015-058D,2026-07-06T04:48:03.691872,14.91054611,.01316687,64.7733,219.8938,49.2258,312.0192,0,U,40967,999,11640,.24664479E-3,.2712E-4,0
SINOD-D 1,2015-058E,2026-07-06T04:44:38.611968,14.96031661,.01203188,64.7734,199.3734,45.6117,315.4773,0,U,40968,999,11950,.35464168E-3,.4442E-4,0
SNAP-3 ALICE,2015-058G,2026-07-05T23:47:53.816640,15.65213108,.00234492,64.7491,38.7008,356.1189,3.9773,0,U,40970,999,11982,.15401303E-2,.158432E-2,0
LMRST-SAT,2015-058H,2026-07-06T07:03:56.171232,14.90671209,.01332358,64.7740,215.9747,51.1989,310.0932,0,U,40971,999,11640,.24424515E-3,.2666E-4,0
SNAP-3 EDDIE,2015-058J,2026-07-06T00:44:13.226496,15.66516171,.00242847,64.7404,29.1481,358.9267,1.1826,0,U,40972,999,12197,.14670745E-2,.159211E-2,0
PROPCUBE 3,2015-058K,2026-07-06T05:11:04.552224,14.94367836,.01251189,64.7669,193.0772,52.4605,308.7798,0,U,40973,999,11764,.32748403E-3,.3948E-4,0
BISONSAT,2015-058L,2026-07-06T05:22:47.634816,15.16752377,.00811542,64.7581,112.0718,39.6675,321.0347,0,U,40974,999,11850,.76010079E-3,.16135E-3,0
SNAP-3 JIMI,2015-058M,2026-07-05T02:17:07.064160,15.02505471,.0107124,64.7642,163.1040,48.2598,312.7618,0,U,40975,999,11691,.74618E-3,.11099E-3,0
PROPCUBE 1 (FLORA),2015-058N,2026-07-06T04:47:35.556576,14.89301316,.01318444,64.7732,236.3081,53.5283,307.7892,0,U,40976,999,11909,.21597771E-3,.224E-4,0
SINOD-D 3,2015-058P,2026-07-06T06:01:03.827136,14.94129239,.01203906,64.7708,216.2846,50.5951,310.5747,0,U,40977,999,11760,.30441112E-3,.3589E-4,0
RAVAN,2016-067B,2026-07-06T05:06:12.093408,15.56728912,.00015057,97.9847,79.0077,289.0343,71.0747,0,U,41849,999,53065,.83973482E-3,.60245E-3,0
CELTEE 1,2016-067C,2026-07-06T04:03:41.505696,15.19880883,.00020106,98.0648,55.0305,121.3110,238.8320,0,U,41850,999,52876,.28706095E-3,.6085E-4,0
OPTICUBE 04,2016-067D,2026-07-06T02:26:04.317504,15.09745492,.00167989,98.0684,40.3709,56.9537,303.3302,0,U,41851,999,52802,.14060553E-3,.2204E-4,0
AEROCUBE 8D,2016-067E,2026-07-06T04:33:26.756928,15.24682940,.00049333,98.0654,58.8069,78.7332,281.4458,0,U,41852,999,52896,.34019792E-3,.8332E-4,0
AEROCUBE 8C,2016-067F,2026-07-06T03:30:25.330464,15.24935614,.00051773,98.0528,55.9634,14.1490,345.9890,0,U,41853,999,52895,.318616E-3,.7858E-4,0
CORVUS BC2,2017-042X,2026-07-05T23:51:05.658336,15.06420807,.00139451,97.4089,347.6149,51.9499,308.2985,0,U,42846,999,48989,.31968106E-3,.4663E-4,0
CORVUS BC1,2017-042Y,2026-07-05T22:04:41.796480,15.06587570,.00124711,97.4125,348.3702,31.1742,329.0223,0,U,42847,999,48991,.28771215E-3,.4208E-4,0
MAKERSAT 0,2017-073D,2026-07-05T22:06:13.569696,15.32761588,.01049706,97.4596,69.5905,205.3611,154.2459,0,U,43016,999,46933,.55243694E-3,.20785E-3,0
SIRION PATHFINDER-2,2018-099B,2026-07-06T01:49:51.330720,15.14726692,.00076349,97.4241,235.6856,225.6988,134.3619,0,U,43759,999,41548,.35278829E-3,.6477E-4,0
