BRITE-PL2 (HEWELIUSZ)   
1 40119U 14049B   26187.25241441  .00002397  00000+0  22612-3 0  9996
2 40119  97.9109 299.4014 0014896  50.9040 309.3502 14.94665181644299
PERSEUS-M1              
1 40039U 14033AF  26186.83542474  .00001593  00000+0  14848-3 0  9992
2 40039  97.9645 131.2745 0010363 231.3781 128.6513 14.95692820653421
POLYITAN-1              
1 40042U 14033AJ  26187.03953733  .00022547  00000+0  68654-3 0  9999
2 40042  98.0937 215.0924 0008463  89.7204 270.5006 15.33980674656487
TIGRISAT                
1 40043U 14033AK  26186.37377244  .00002486  00000+0  28994-3 0  9996
2 40043  97.7858 335.9710 0049474  16.6336 343.6488 14.85229748648327
AEROCUBE 6A             
1 40045U 14033AM  26186.99152672  .00006128  00000+0  51283-3 0  9996
2 40045  97.7237 353.7430 0037391 312.5497  47.2570 14.98283405649434
AEROCUBE 6B             
1 40046U 14033AN  26186.97554119  .00005982  00000+0  48189-3 0  9995
2 40046  97.7219 353.5584 0037808 302.8679  56.8907 14.99744445649572
CANX-4                  
1 40055U 14034C   26187.20092967  .00001023  00000+0  13831-3 0  9999
2 40055  98.3098  63.2100 0011796 314.7070  45.3180 14.81300630647342
CANX-5                  
1 40056U 14034D   26187.13159294  .00001023  00000+0  13836-3 0  9994
2 40056  98.3100  63.1828 0011793 315.1569  44.8689 14.81317794638143
UKUBE-1                 
1 40074U 14037F   26186.94193766  .00009032  00000+0  50350-3 0  9997
2 40074  98.4245 192.1880 0003341 104.1515 256.0085 15.13856330651391
AEROCUBE 5C             
1 40965U 15058B   26186.47581249  .00003542  00000+0  31327-3 0  9998
2 40965  64.7654 205.6916 0131703  56.1518 305.2047 14.91536447368381
AEROCUBE 7              
1 40966U 15058C   26187.28884567  .00004565  00000+0  36481-3 0  9990
2 40966  64.7608 184.9789 0121426  54.1810 307.0514 14.95857262368814
FOX-1A (AO-85)          
1 40967U 15058D   26187.20004273  .00002712  00000+0  24664-3 0  9993
2 40967  64.7733 219.8938 0131668  49.2258 312.0192 14.91054611116405
SINOD-D 1               
1 40968U 15058E   26187.19766912  .00004442  00000+0  35464-3 0  9999
2 40968  64.7734 199.3734 0120318  45.6117 315.4773 14.96031661119508
SNAP-3 ALICE            
1 40970U 15058G   26186.99159510  .00158432  00000+0  15401-2 0  9996
2 40970  64.7491  38.7008 0023449 356.1189   3.9773 15.65213108119826
LMRST-SAT               
1 40971U 15058H   26187.29440013  .00002666  00000+0  24425-3 0  9996
2 40971  64.7740 215.9747 0133235  51.1989 310.0932 14.90671209116405
SNAP-3 EDDIE            
1 40972U 15058J   26187.03070864  .00159211  00000+0  14671-2 0  9992
2 40972  64.7404  29.1481 0024284 358.9267   1.1826 15.66516171121971
PROPCUBE 3              
1 40973U 15058K   26187.21602491  .00003948  00000+0  32748-3 0  9991
2 40973  64.7669 193.0772 0125118  52.4605 308.7798 14.94367836117644
BISONSAT                
1 40974U 15058L   26187.22416244  .00016135  00000+0  76010-3 0  9994
2 40974  64.7581 112.0718 0081154  39.6675 321.0347 15.16752377118501
SNAP-3 JIMI             
1 40975U 15058M   26186.09522065  .00011099  00000+0  74618-3 0  9994
2 40975  64.7642 163.1040 0107124  48.2598 312.7618 15.02505471116918
PROPCUBE 1 (FLORA)      
1 40976U 15058N   26187.19971709  .00002240  00000+0  21598-3 0  9997
2 40976  64.7732 236.3081 0131844  53.5283 307.7892 14.89301316119099
SINOD-D 3               
1 40977U 15058P   26187.25073874  .00003589  00000+0  30441-3 0  9995
2 40977  64.7708 216.2846 0120390  50.5951 310.5747 14.94129239117606
RAVAN                   
1 41849U 16067B   26187.21263997  .00060245  00000+0  83973-3 0  9998
2 41849  97.9847  79.0077 0001505 289.0343  71.0747 15.56728912530653
CELTEE 1                
1 41850U 16067C   26187.16923039  .00006085  00000+0  28706-3 0  9999
2 41850  98.0648  55.0305 0002010 121.3110 238.8320 15.19880883528760
OPTICUBE 04             
1 41851U 16067D   26187.10143886  .00002204  00000+0  14061-3 0  9996
2 41851  98.0684  40.3709 0016798  56.9537 303.3302 15.09745492528022
AEROCUBE 8D             
1 41852U 16067E   26187.18989302  .00008332  00000+0  34020-3 0  9991
2 41852  98.0654  58.8069 0004933  78.7332 281.4458 15.24682940528962
AEROCUBE 8C             
1 41853U 16067F   26187.14612651  .00007858  00000+0  31862-3 0  9991
2 41853  98.0528  55.9634 0005177  14.1490 345.9890 15.24935614528953
CORVUS BC2              
1 42846U 17042X   26186.99381549  .00004663  00000+0  31968-3 0  9997
2 42846  97.4089 347.6149 0013945  51.9499 308.2985 15.06420807489892
CORVUS BC1              
1 42847U 17042Y   26186.91992820  .00004208  00000+0  28771-3 0  9993
2 42847  97.4125 348.3702 0012471  31.1742 329.0223 15.06587570489911
MAKERSAT 0              
1 43016U 17073D   26186.92099039  .00020785  00000+0  55244-3 0  9990
2 43016  97.4596  69.5905 0104970 205.3611 154.2459 15.32761588469330
SIRION PATHFINDER-2     
1 43759U 18099B   26187.07628855  .00006477  00000+0  35279-3 0  9992
2 43759  97.4241 235.6856 0007634 225.6988 134.3619 15.14726692415484
